[{"OBJECT_NAME":"OBJECT AS","OBJECT_ID":"2023-085AS","EPOCH":"2026-03-09T22:43:55.521696","MEAN_MOTION":15.33336233,"ECCENTRICITY":0.00083243,"INCLINATION":97.4812,"RA_OF_ASC_NODE":180.8852,"ARG_OF_PERICENTER":80.6036,"MEAN_ANOMALY":279.6147,"EPHEMERIS_TYPE":0,"CLASSIFICATION_TYPE":"U","NORAD_CAT_ID":57044,"ELEMENT_SET_NO":999,"REV_AT_EPOCH":15162,"BSTAR":0.00067677795,"MEAN_MOTION_DOT":0.00021782,"MEAN_MOTION_DDOT":0},{"OBJECT_NAME":"STARLINK-35432","OBJECT_ID":"2025-232S","EPOCH":"2026-03-09T19:23:59.465760","MEAN_MOTION":15.30196323,"ECCENTRICITY":0.00013319,"INCLINATION":53.159,"RA_OF_ASC_NODE":103.3633,"ARG_OF_PERICENTER":93.818,"MEAN_ANOMALY":266.2973,"EPHEMERIS_TYPE":0,"CLASSIFICATION_TYPE":"U","NORAD_CAT_ID":66021,"ELEMENT_SET_NO":999,"REV_AT_EPOCH":2345,"BSTAR":0.00068795217,"MEAN_MOTION_DOT":0.00020069,"MEAN_MOTION_DDOT":0}]
